[{"OBJECT_NAME":"JILIN-1 KUANFU 01C","OBJECT_ID":"2022-048A","EPOCH":"2026-03-09T22:44:12.026688","MEAN_MOTION":15.09601076,"ECCENTRICITY":0.00140886,"INCLINATION":97.5312,"RA_OF_ASC_NODE":147.8831,"ARG_OF_PERICENTER":308.8335,"MEAN_ANOMALY":51.1636,"EPHEMERIS_TYPE":0,"CLASSIFICATION_TYPE":"U","NORAD_CAT_ID":52443,"ELEMENT_SET_NO":999,"REV_AT_EPOCH":21222,"BSTAR":0.00028577595,"MEAN_MOTION_DOT":4.539e-5,"MEAN_MOTION_DDOT":0},{"OBJECT_NAME":"STARLINK-4513","OBJECT_ID":"2022-101X","EPOCH":"2026-03-09T06:43:11.031456","MEAN_MOTION":15.08836724,"ECCENTRICITY":0.00012967,"INCLINATION":53.2166,"RA_OF_ASC_NODE":65.9596,"ARG_OF_PERICENTER":87.0326,"MEAN_ANOMALY":273.0814,"EPHEMERIS_TYPE":0,"CLASSIFICATION_TYPE":"U","NORAD_CAT_ID":53548,"ELEMENT_SET_NO":999,"REV_AT_EPOCH":19624,"BSTAR":-1.8608743e-5,"MEAN_MOTION_DOT":-5.84e-6,"MEAN_MOTION_DDOT":0}]
